{"type": "FeatureCollection", "features": [ {"type": "Feature", "properties": {"norad_id": 35480, "name": "IRIDIUM 33 DEB", "group": "iridium-33-debris", "lat": 67.18928811931319, "lon": -164.55370104002915, "alt_km": 708.976125952674, "timestamp": "2025-12-14T11:29:50.445857+00:00", "meta": {"OBJECT_NAME": "IRIDIUM 33 DEB", "OBJECT_ID": "1997-051QA", "EPOCH": "2025-12-09T19:59:43.135296", "MEAN_MOTION": 14.49744632, "ECCENTRICITY": 0.00159269, "INCLINATION": 86.357, "RA_OF_ASC_NODE": 26.1722, "ARG_OF_PERICENTER": 113.2937, "MEAN_ANOMALY": 246.9945, "EPHEMERIS_TYPE": 0, "CLASSIFICATION_TYPE": "U", "NORAD_CAT_ID": 35480, "ELEMENT_SET_NO": 999, "REV_AT_EPOCH": 86989, "BSTAR": 0.0009193458, "MEAN_MOTION_DOT": 3.565e-05, "MEAN_MOTION_DDOT": 0}, "tle": {"line1": "1 35480U 97051QA  25343.83313814  .00003565  00000+0  91935-3 0  9998", "line2": "2 35480  86.3570  26.1722 0015926 113.2937 246.9945 14.49744632869893"}}, "geometry": {"type": "Point", "coordinates": [-164.55370104002915, 67.18928811931319]}}, {"type": "Feature", "properties": {"norad_id": 35484, "name": "IRIDIUM 33 DEB", "group": "iridium-33-debris", "lat": -43.823477457708236, "lon": 175.43335826377609, "alt_km": 581.3910496843691, "timestamp": "2025-12-14T11:29:50.445873+00:00", "meta": {"OBJECT_NAME": "IRIDIUM 33 DEB", "OBJECT_ID": "1997-051QE", "EPOCH": "2025-12-13T07:15:48.307680", "MEAN_MOTION": 14.98714194, "ECCENTRICITY": 0.00237352, "INCLINATION": 86.3615, "RA_OF_ASC_NODE": 352.4822, "ARG_OF_PERICENTER": 123.3819, "MEAN_ANOMALY": 236.9688, "EPHEMERIS_TYPE": 0, "CLASSIFICATION_TYPE": "U", "NORAD_CAT_ID": 35484, "ELEMENT_SET_NO": 999, "REV_AT_EPOCH": 62024, "BSTAR": 0.0048114888, "MEAN_MOTION_DOT": 0.00058609, "MEAN_MOTION_DDOT": 0}, "tle": {"line1": "1 35484U 97051QE  25347.30264245  .00058609  00000+0  48115-2 0  9991", "line2": "2 35484  86.3615 352.4822 0023735 123.3819 236.9688 14.98714194620242"}}, "geometry": {"type": "Point", "coordinates": [175.43335826377609, -43.823477457708236]}}, {"type": "Feature", "properties": {"norad_id": 35488, "name": "IRIDIUM 33 DEB", "group": "iridium-33-debris", "lat": -54.85826671417483, "lon": 125.3161174956266, "alt_km": 646.4507525056024, "timestamp": "2025-12-14T11:29:50.445889+00:00", "meta": {"OBJECT_NAME": "IRIDIUM 33 DEB", "OBJECT_ID": "1997-051QJ", "EPOCH": "2025-12-12T14:43:12.684864", "MEAN_MOTION": 14.83053941, "ECCENTRICITY": 0.00298615, "INCLINATION": 86.3248, "RA_OF_ASC_NODE": 300.9369, "ARG_OF_PERICENTER": 43.3071, "MEAN_ANOMALY": 317.049, "EPHEMERIS_TYPE": 0, "CLASSIFICATION_TYPE": "U", "NORAD_CAT_ID": 35488, "ELEMENT_SET_NO": 999, "REV_AT_EPOCH": 88264, "BSTAR": 0.0023232859, "MEAN_MOTION_DOT": 0.00019104, "MEAN_MOTION_DDOT": 0}, "tle": {"line1": "1 35488U 97051QJ  25346.61334126  .00019104  00000+0  23233-2 0  9995", "line2": "2 35488  86.3248 300.9369 0029861  43.3071 317.0490 14.83053941882645"}}, "geometry": {"type": "Point", "coordinates": [125.3161174956266, -54.85826671417483]}}, {"type": "Feature", "properties": {"norad_id": 35616, "name": "IRIDIUM 33 DEB", "group": "iridium-33-debris", "lat": 26.28261999568464, "lon": -13.22478952983062, "alt_km": 627.2580592861577, "timestamp": "2025-12-14T11:29:50.445905+00:00", "meta": {"OBJECT_NAME": "IRIDIUM 33 DEB", "OBJECT_ID": "1997-051QN", "EPOCH": "2025-12-13T06:12:25.260480", "MEAN_MOTION": 14.81841111, "ECCENTRICITY": 0.00102457, "INCLINATION": 86.3535, "RA_OF_ASC_NODE": 345.5275, "ARG_OF_PERICENTER": 162.0013, "MEAN_ANOMALY": 198.1574, "EPHEMERIS_TYPE": 0, "CLASSIFICATION_TYPE": "U", "NORAD_CAT_ID": 35616, "ELEMENT_SET_NO": 999, "REV_AT_EPOCH": 87582, "BSTAR": 0.0030119844, "MEAN_MOTION_DOT": 0.00023901, "MEAN_MOTION_DDOT": 0}, "tle": {"line1": "1 35616U 97051QN  25347.25862570  .00023901  00000+0  30120-2 0  9991", "line2": "2 35616  86.3535 345.5275 0010245 162.0013 198.1574 14.81841111875824"}}, "geometry": {"type": "Point", "coordinates": [-13.22478952983062, 26.28261999568464]}}, {"type": "Feature", "properties": {"norad_id": 35618, "name": "IRIDIUM 33 DEB", "group": "iridium-33-debris", "lat": -32.38525508190551, "lon": -9.583764797761129, "alt_km": 709.8625009889083, "timestamp": "2025-12-14T11:29:50.445923+00:00", "meta": {"OBJECT_NAME": "IRIDIUM 33 DEB", "OBJECT_ID": "1997-051QQ", "EPOCH": "2025-12-05T07:42:53.148672", "MEAN_MOTION": 14.52258119, "ECCENTRICITY": 0.00302089, "INCLINATION": 86.3407, "RA_OF_ASC_NODE": 356.7447, "ARG_OF_PERICENTER": 46.3254, "MEAN_ANOMALY": 314.0448, "EPHEMERIS_TYPE": 0, "CLASSIFICATION_TYPE": "U", "NORAD_CAT_ID": 35618, "ELEMENT_SET_NO": 999, "REV_AT_EPOCH": 65286, "BSTAR": 0.00091388234, "MEAN_MOTION_DOT": 3.753e-05, "MEAN_MOTION_DDOT": 0}, "tle": {"line1": "1 35618U 97051QQ  25339.32144848  .00003753  00000+0  91388-3 0  9990", "line2": "2 35618  86.3407 356.7447 0030208  46.3254 314.0448 14.52258119652865"}}, "geometry": {"type": "Point", "coordinates": [-9.583764797761129, -32.38525508190551]}}, {"type": "Feature", "properties": {"norad_id": 35620, "name": "IRIDIUM 33 DEB", "group": "iridium-33-debris", "lat": -40.53238756768392, "lon": 39.815737525800195, "alt_km": 686.0321196868626, "timestamp": "2025-12-14T11:29:50.445943+00:00", "meta": {"OBJECT_NAME": "IRIDIUM 33 DEB", "OBJECT_ID": "1997-051QS", "EPOCH": "2025-12-12T01:41:06.603648", "MEAN_MOTION": 14.38023351, "ECCENTRICITY": 0.01413324, "INCLINATION": 86.3886, "RA_OF_ASC_NODE": 217.736, "ARG_OF_PERICENTER": 261.1948, "MEAN_ANOMALY": 97.3224, "EPHEMERIS_TYPE": 0, "CLASSIFICATION_TYPE": "U", "NORAD_CAT_ID": 35620, "ELEMENT_SET_NO": 999, "REV_AT_EPOCH": 59956, "BSTAR": 0.0071195038, "MEAN_MOTION_DOT": 0.00024261, "MEAN_MOTION_DDOT": 0}, "tle": {"line1": "1 35620U 97051QS  25346.07021532  .00024261  00000+0  71195-2 0  9997", "line2": "2 35620  86.3886 217.7360 0141332 261.1948  97.3224 14.38023351599569"}}, "geometry": {"type": "Point", "coordinates": [39.815737525800195, -40.53238756768392]}}, {"type": "Feature", "properties": {"norad_id": 35622, "name": "IRIDIUM 33 DEB", "group": "iridium-33-debris", "lat": 4.345867400318595, "lon": -96.96415108493778, "alt_km": 550.8564631753343, "timestamp": "2025-12-14T11:29:50.445959+00:00", "meta": {"OBJECT_NAME": "IRIDIUM 33 DEB", "OBJECT_ID": "1997-051QU", "EPOCH": "2025-12-13T12:18:27.452736", "MEAN_MOTION": 15.04855982, "ECCENTRICITY": 0.00058138, "INCLINATION": 86.204, "RA_OF_ASC_NODE": 263.2227, "ARG_OF_PERICENTER": 326.3099, "MEAN_ANOMALY": 206.7001, "EPHEMERIS_TYPE": 0, "CLASSIFICATION_TYPE": "U", "NORAD_CAT_ID": 35622, "ELEMENT_SET_NO": 999, "REV_AT_EPOCH": 87371, "BSTAR": 0.007661382, "MEAN_MOTION_DOT": 0.00109841, "MEAN_MOTION_DDOT": 0}, "tle": {"line1": "1 35622U 97051QU  25347.51281774  .00109841  00000+0  76614-2 0  9994", "line2": "2 35622  86.2040 263.2227 0005813 326.3099 206.7001 15.04855982873712"}}, "geometry": {"type": "Point", "coordinates": [-96.96415108493778, 4.345867400318595]}}, {"type": "Feature", "properties": {"norad_id": 35628, "name": "IRIDIUM 33 DEB", "group": "iridium-33-debris", "lat": -39.538096695409166, "lon": 5.286518535230343, "alt_km": 668.2533188525867, "timestamp": "2025-12-14T11:29:50.445993+00:00", "meta": {"OBJECT_NAME": "IRIDIUM 33 DEB", "OBJECT_ID": "1997-051RA", "EPOCH": "2025-12-12T18:46:03.477216", "MEAN_MOTION": 14.67584351, "ECCENTRICITY": 0.00103833, "INCLINATION": 86.3581, "RA_OF_ASC_NODE": 9.0566, "ARG_OF_PERICENTER": 342.8162, "MEAN_ANOMALY": 17.2699, "EPHEMERIS_TYPE": 0, "CLASSIFICATION_TYPE": "U", "NORAD_CAT_ID": 35628, "ELEMENT_SET_NO": 999, "REV_AT_EPOCH": 86447, "BSTAR": 0.0018776311, "MEAN_MOTION_DOT": 0.00010694, "MEAN_MOTION_DDOT": 0}, "tle": {"line1": "1 35628U 97051RA  25346.78198469  .00010694  00000+0  18776-2 0  9998", "line2": "2 35628  86.3581   9.0566 0010383 342.8162  17.2699 14.67584351864471"}}, "geometry": {"type": "Point", "coordinates": [5.286518535230343, -39.538096695409166]}}, {"type": "Feature", "properties": {"norad_id": 35631, "name": "IRIDIUM 33 DEB", "group": "iridium-33-debris", "lat": 86.35038705965228, "lon": 105.06783494362926, "alt_km": 714.4167674915489, "timestamp": "2025-12-14T11:29:50.446008+00:00", "meta": {"OBJECT_NAME": "IRIDIUM 33 DEB", "OBJECT_ID": "1997-051RD", "EPOCH": "2025-12-13T08:35:52.941696", "MEAN_MOTION": 14.47314352, "ECCENTRICITY": 0.00190886, "INCLINATION": 86.3675, "RA_OF_ASC_NODE": 20.7093, "ARG_OF_PERICENTER": 116.1706, "MEAN_ANOMALY": 257.5485, "EPHEMERIS_TYPE": 0, "CLASSIFICATION_TYPE": "U", "NORAD_CAT_ID": 35631, "ELEMENT_SET_NO": 999, "REV_AT_EPOCH": 87206, "BSTAR": 0.00058903545, "MEAN_MOTION_DOT": 2.18e-05, "MEAN_MOTION_DDOT": 0}, "tle": {"line1": "1 35631U 97051RD  25347.35825164  .00002180  00000+0  58904-3 0  9994", "line2": "2 35631  86.3675  20.7093 0019088 116.1706 257.5485 14.47314352872067"}}, "geometry": {"type": "Point", "coordinates": [105.06783494362926, 86.35038705965228]}}, {"type": "Feature", "properties": {"norad_id": 35680, "name": "IRIDIUM 33 DEB", "group": "iridium-33-debris", "lat": -74.78885952401352, "lon": -144.72912201016095, "alt_km": 726.1205346758288, "timestamp": "2025-12-14T11:29:50.446020+00:00", "meta": {"OBJECT_NAME": "IRIDIUM 33 DEB", "OBJECT_ID": "1997-051RJ", "EPOCH": "2025-12-13T09:13:25.254912", "MEAN_MOTION": 14.20938352, "ECCENTRICITY": 0.01504857, "INCLINATION": 86.103, "RA_OF_ASC_NODE": 21.2368, "ARG_OF_PERICENTER": 276.4463, "MEAN_ANOMALY": 142.7573, "EPHEMERIS_TYPE": 0, "CLASSIFICATION_TYPE": "U", "NORAD_CAT_ID": 35680, "ELEMENT_SET_NO": 999, "REV_AT_EPOCH": 60710, "BSTAR": 0.0061528167, "MEAN_MOTION_DOT": 0.00014968, "MEAN_MOTION_DDOT": 0}, "tle": {"line1": "1 35680U 97051RJ  25347.38432008  .00014968  00000+0  61528-2 0  9994", "line2": "2 35680  86.1030  21.2368 0150485 276.4463 142.7573 14.20938352607109"}}, "geometry": {"type": "Point", "coordinates": [-144.72912201016095, -74.78885952401352]}}]}